1 13595U 82097A   19351.68642564 -.00000165  00000-0  00000+0 0  9991
2 13595  14.8536 349.5431 0024712 341.6567 190.8526  0.98407647104730
1 13595U 82097A   19352.76159352 -.00000194 +00000-0 +00000-0 0  9992
2 13595 014.8527 349.5331 0024782 341.7126 211.7096 00.98408020104683
1 13595U 82097A   19353.65515701 -.00000214 +00000-0 +00000-0 0  9998
2 13595 014.8519 349.5249 0024834 341.7432 168.2490 00.98408155104694
1 13595U 82097A   19354.26715484 -.00000225  00000-0  00000+0 0  9997
2 13595  14.8514 349.5192 0024870 341.7857  25.0304  0.98408357104763
1 13595U 82097A   19354.76893689 -.00000233 +00000-0 +00000-0 0  9996
2 13595 014.8510 349.5146 0024915 341.8237 202.7642 00.98408387104707
1 13595U 82097A   19355.77260865 -.00000244 +00000-0 +00000-0 0  9994
2 13595 014.8501 349.5053 0024991 341.8999 198.2716 00.98408420104713
1 13595U 82097A   19356.28113642 -.00000246  00000-0  00000+0 0  9992
2 13595  14.8496 349.5007 0025022 341.9469  18.3879  0.98408416104788
1 13595U 82097A   19356.77629896 -.00000247 +00000-0 +00000-0 0  9991
2 13595 014.8492 349.4961 0025060 341.9767 193.7850 00.98408342104724
1 13595U 82097A   19357.78003751 -.00000243 +00000-0 +00000-0 0  9995
2 13595 014.8483 349.4868 0025138 342.0768 189.2907 00.98408133104731
1 13595U 82097A   19358.31578802 -.00000237  00000-0  00000+0 0  9991
2 13595  14.8478 349.4819 0025171 342.1452  19.0299  0.98408019104804
1 13595U 82097A   19358.82250700 -.00000231 +00000-0 +00000-0 0  9996
2 13595 014.8474 349.4772 0025216 342.1923 198.5035 00.98407848104744
1 13595U 82097A   19359.85882578 -.00000211 +00000-0 +00000-0 0  9992
2 13595 014.8464 349.4676 0025297 342.3265 205.5169 00.98407467104751
1 13595U 82097A   19360.36078226 -.00000200  00000-0  00000+0 0  9994
2 13595  14.8460 349.4630 0025330 342.4060  23.2707  0.98407271104823
1 13595U 82097A   19361.87132590 -.00000159 +00000-0 +00000-0 0  9990
2 13595 014.8446 349.4490 0025421 342.5847 198.2405 00.98406476104774
1 13595U 82097A   19362.36813118 -.00000143  00000-0  00000+0 0  9999
2 13595  14.8442 349.4444 0025453 342.6756  14.1552  0.98406226104844
1 13595U 82097A   19362.87323635 -.00000128 +00000-0 +00000-0 0  9999
2 13595 014.8437 349.4397 0025487 342.7414 193.0350 00.98405966104780
1 13595U 82097A   19363.37181337 -.00000112 +00000-0 +00000-0 0  9999
2 13595 014.8433 349.4351 0025516 342.8260 009.5838 00.98405746104787
1 13595U 82097A   19364.44701295 -.00000079  00000-0  00000+0 0  9990
2 13595  14.8423 349.4251 0025580 342.9944  30.3297  0.98405286104865
1 13595U 82097A   19364.89807267 -.00000066 +00000-0 +00000-0 0  9992
2 13595 014.8419 349.4209 0025600 343.0559 190.0651 00.98405089104803
1 13595U 82097A   19365.45064664 -.00000050 +00000-0 +00000-0 0  9994
2 13595 014.8414 349.4158 0025636 343.1520 025.7301 00.98404904104811
1 13595U 82097A   20001.45426428 -.00000025  00000-0  00000+0 0  9994
2 13595  14.8405 349.4066 0025686 343.3084  21.1243  0.98404601104887
1 13595U 82097A   20001.59329752 -.00000022 +00000-0 +00000-0 0  9999
2 13595 014.8404 349.4053 0025692 343.3332 070.3546 00.98404571104827
1 13595U 82097A   20002.90815747 +.00000001 +00000-0 +00000-0 0  9995
2 13595 014.8392 349.3932 0025748 343.5431 175.9567 00.98404343104835
1 13595U 82097A   20003.46167352  .00000007  00000-0  00000+0 0  9994
2 13595  14.8387 349.3881 0025773 343.6268  11.9661  0.98404324104900
1 13595U 82097A   20004.46541476 +.00000013 +00000-0 +00000-0 0  9996
2 13595 014.8378 349.3788 0025807 343.7749 007.4104 00.98404354104847
1 13595U 82097A   20005.54060873  .00000011  00000-0  00000+0 0  9990
2 13595  14.8369 349.3688 0025862 343.9600  28.1328  0.98404552104922
1 13595U 82097A   20006.54426272 +.00000002 +00000-0 +00000-0 0  9991
2 13595 014.8360 349.3595 0025899 344.1118 023.5456 00.98404851104874
1 13595U 82097A   20007.70119299 -.00000017  00000-0  00000+0 0  9994
2 13595  14.8349 349.3487 0025937 344.2738  73.2501  0.98405285104946
1 13595U 82097A   20008.55163757 -.00000035 +00000-0 +00000-0 0  9997
2 13595 014.8342 349.3408 0025957 344.3745 014.4372 00.98405620104882
1 13595U 82097A   20009.55528862 -.00000061 +00000-0 +00000-0 0  9999
2 13595 014.8333 349.3315 0025981 344.4910 009.8879 00.98406076104898
1 13595U 82097A   20010.08521623 -.00000075  00000-0  00000+0 0  9991
2 13595  14.8328 349.3265 0026013 344.5925 197.5248  0.98406283104963
1 13595U 82097A   20010.55888913 -.00000088 +00000-0 +00000-0 0  9996
2 13595 014.8324 349.3221 0026026 344.6322 005.2968 00.98406518104906
1 13595U 82097A   20011.63408358 -.00000119 +00000-0 +00000-0 0  9992
2 13595 014.8314 349.3121 0026065 344.7530 026.0934 00.98406997104926
1 13595U 82097A   20012.13584427 -.00000134  00000-0  00000+0 0  9996
2 13595  14.8310 349.3074 0026087 344.8234 203.7851  0.98407177104984
1 13595U 82097A   20012.63780076 -.00000147 +00000-0 +00000-0 0  9994
2 13595 014.8305 349.3026 0026106 344.8639 021.5787 00.98407392104934
1 13595U 82097A   20013.13957889 -.00000160 +00000-0 +00000-0 0  9993
2 13595 014.8301 349.2979 0026134 344.9366 199.2758 00.98407557104939
1 13595U 82097A   20014.14318663 -.00000184  00000-0  00000+0 0  9991
2 13595  14.8292 349.2885 0026176 345.0361 194.7343  0.98407811105009
1 13595U 82097A   20014.27310490 -.00000186 +00000-0 +00000-0 0  9998
2 13595 014.8291 349.2873 0026183 345.0603 240.7371 00.98407821104948
1 13595U 82097A   20015.14688213 -.00000202 +00000-0 +00000-0 0  9995
2 13595 014.8284 349.2792 0026230 345.1562 190.2046 00.98407983104956
1 13595U 82097A   20015.64875130 -.00000210 +00000-0 +00000-0 0  9995
2 13595 014.8280 349.2745 0026246 345.1985 007.9662 00.98408057104957
1 13595U 82097A   20016.72372674 -.00000221  00000-0  00000+0 0  9991
2 13595  14.8270 349.2645 0026303 345.3189  28.6890  0.98408063105037
1 13595U 82097A   20017.22577036 -.00000223 +00000-0 +00000-0 0  9999
2 13595 014.8266 349.2599 0026335 345.3762 206.4959 00.98408020104979
1 13595U 82097A   20018.22945630 -.00000223 +00000-0 +00000-0 0  9999
2 13595 014.8257 349.2506 0026391 345.4971 201.9612 00.98407877104988
1 13595U 82097A   20018.73132539 -.00000221  00000-0  00000+0 0  9998
2 13595  14.8253 349.2459 0026412 345.5651  19.6963  0.98407801105050
1 13595U 82097A   20019.25882620 -.00000217 +00000-0 +00000-0 0  9995
2 13595 014.8248 349.2410 0026449 345.6337 206.5114 00.98407694104990
1 13595U 82097A   20020.42058269 -.00000204 +00000-0 +00000-0 0  9996
2 13595 014.8238 349.2302 0026514 345.7897 257.9435 00.98407405105003
1 13595U 82097A   20020.73863005 -.00000199  00000-0  00000+0 0  9994
2 13595  14.8235 349.2272 0026527 345.8335  10.5780  0.98407328105075
1 13595U 82097A   20021.24047925 -.00000190 +00000-0 +00000-0 0  9998
2 13595 014.8230 349.2225 0026555 345.8969 188.3086 00.98407155105017
1 13595U 82097A   20022.32549199 -.00000169 +00000-0 +00000-0 0  9994
2 13595 014.8221 349.2124 0026621 346.0990 212.5010 00.98406746105029
1 13595U 82097A   20022.81759419 -.00000158  00000-0  00000+0 0  9993
2 13595  14.8216 349.2078 0026647 346.2014  26.7398  0.98406588105093
1 13595U 82097A   20023.31937354 -.00000146 +00000-0 +00000-0 0  9993
2 13595 014.8212 349.2031 0026671 346.2652 204.4433 00.98406379105030
1 13595U 82097A   20024.32306774 -.00000122 +00000-0 +00000-0 0  9995
2 13595 014.8203 349.1938 0026718 346.4459 199.8459 00.98406013105045
1 13595U 82097A   20024.82490390 -.00000110  00000-0  00000+0 0  9994
2 13595  14.8198 349.1891 0026740 346.5531  17.5255  0.98405825105111
1 13595U 82097A   20025.32668556 -.00000097 +00000-0 +00000-0 0  9996
2 13595 014.8194 349.1844 0026762 346.6301 195.2169 00.98405673105057
1 13595U 82097A   20026.33035997 -.00000074 +00000-0 +00000-0 0  9990
2 13595 014.8185 349.1752 0026794 346.8053 190.6145 00.98405344105065
1 13595U 82097A   20027.33410240 -.00000052  00000-0  00000+0 0  9994
2 13595  14.8176 349.1658 0026827 347.0055 186.0125  0.98405123105132
1 13595U 82097A   20027.83588413 -.00000041 +00000-0 +00000-0 0  9996
2 13595 014.8171 349.1612 0026849 347.1157 003.6681 00.98404999105079
1 13595U 82097A   20028.40928644 -.00000031 +00000-0 +00000-0 0  9993
2 13595 014.8166 349.1559 0026865 347.2354 206.6888 00.98404929105089
1 13595U 82097A   20028.91109049 -.00000023 +00000-0 +00000-0 0  9990
2 13595 014.8162 349.1512 0026883 347.3418 024.3551 00.98404831105091
1 13595U 82097A   20030.41660054 -.00000005 +00000-0 +00000-0 0  9996
2 13595 014.8148 349.1373 0026931 347.6756 197.3779 00.98404760105108
1 13595U 82097A   20030.41660054 -.00000005  00000-0  00000+0 0  9995
2 13595  14.8148 349.1373 0026931 347.6756 197.3779  0.98404760105164
1 13595U 82097A   20030.91846407 -.00000002  00000-0  00000+0 0  9995
2 13595  14.8144 349.1326 0026946 347.7719  15.0757  0.98404752105178
1 13595U 82097A   20031.42024558 +.00000001 +00000-0 +00000-0 0  9996
2 13595 014.8139 349.1280 0026951 347.8744 192.7400 00.98404814105117
1 13595U 82097A   20032.42391448 +.00000000 +00000-0 +00000-0 0  9991
2 13595 014.8130 349.1187 0026967 348.0764 188.1068 00.98404928105122
1 13595U 82097A   20033.06844873 -.00000003  00000-0  00000+0 0  9990
2 13595  14.8125 349.1127 0026981 348.1903  56.3324  0.98405053105190
1 13595U 82097A   20033.53483146 -.00000007 +00000-0 +00000-0 0  9999
2 13595 014.8121 349.1084 0026982 348.2833 221.4642 00.98405142105133
1 13595U 82097A   20035.44245189 -.00000035  00000-0  00000+0 0  9994
2 13595  14.8104 349.0906 0027003 348.6276 176.9374  0.98405763105210
1 13595U 82097A   20035.50650260 -.00000036 +00000-0 +00000-0 0  9993
2 13595 014.8103 349.0900 0027002 348.6377 199.6188 00.98405787105158
1 13595U 82097A   20036.51016156 -.00000058 +00000-0 +00000-0 0  9999
2 13595 014.8094 349.0806 0027009 348.7972 195.0289 00.98406161105161
1 13595U 82097A   20037.53452066 -.00000085 +00000-0 +00000-0 0  9996
2 13595 014.8085 349.0710 0027019 348.9591 197.7730 00.98406597105179
1 13595U 82097A   20037.53452066 -.00000085  00000-0  00000+0 0  9995
2 13595  14.8085 349.0710 0027019 348.9591 197.7730  0.98406597105236
